TIANMU-1 07             
1 57399U 23101A   26065.57454230  .00008352  00000+0  29795-3 0  9991
2 57399  97.2728 118.5929 0004609 142.4105 217.7458 15.29118809145964
STARLINK-35355          
1 66448U 25259AC  26068.92802628  .00029619  00000+0  10805-2 0  9992
2 66448  43.0007 273.3462 0001573 281.8072  78.2603 15.27610332 19528
